     2.100          NAVIGATION                              RINEX VERSION / TYPE
fic2rin                                 02/04/2012 00:05:58 PGM / RUN BY / DATE
                                                            END OF HEADER
13 12  2  3 16  0  0.0  .227062962949D-03 -.216004991671D-11  .000000000000D+00
     .510000000000D+02  .109312500000D+03  .373908431930D-08  .773966991746D-01
     .557303428650D-05  .473851594143D-02  .819377601147D-05  .515372695732D+04
     .489600000000D+06 -.540167093277D-07  .308270453502D+01 -.838190317154D-07
     .987352570581D+00  .235343750000D+03  .194090015014D+01 -.777139513837D-08
    -.171435712414D-10  .100000000000D+01  .167300000000D+04  .000000000000D+00
     .240000000000D+01  .000000000000D+00 -.111758708954D-07  .510000000000D+02
     .482406000000D+06  .400000000000D+01
15 12  2  3 16  0  0.0 -.935569405556D-04  .568434188608D-12  .000000000000D+00
     .130000000000D+02  .858125000000D+02  .464126475588D-08 -.266517942776D+00
     .441446900368D-05  .429914006963D-02  .805966556072D-05  .515376500320D+04
     .489600000000D+06  .633299350739D-07  .297281404221D+01 -.558793544769D-08
     .947124567517D+00  .217218750000D+03  .177686644333D-01 -.814748223248D-08
    -.128933942045D-09  .100000000000D+01  .167300000000D+04  .000000000000D+00
     .240000000000D+01  .000000000000D+00 -.102445483208D-07  .130000000000D+02
     .482406000000D+06  .400000000000D+01
16 12  2  3 16  0  0.0 -.221787951887D-03 -.170530256582D-11  .000000000000D+00
     .360000000000D+02 -.106250000000D+03  .391302013585D-08  .148978698068D+01
    -.538490712643D-05  .639704521745D-02  .692158937454D-05  .515361430359D+04
     .489600000000D+06 -.186264514923D-08 -.115484000608D+01  .800937414169D-07
     .979108107028D+00  .254406250000D+03 -.803769588115D-01 -.786782772661D-08
    -.148220459691D-09  .100000000000D+01  .167300000000D+04  .000000000000D+00
     .240000000000D+01  .000000000000D+00 -.977888703346D-08  .360000000000D+02
     .482406000000D+06  .400000000000D+01
17 12  2  3 16  0  0.0  .150946900249D-03 -.227373675443D-11  .000000000000D+00
     .920000000000D+02 -.349062500000D+02  .446161441558D-08  .529889240928D+00
    -.186264514923D-05  .709923845716D-02  .962615013123D-05  .515363202477D+04
     .489600000000D+06 -.298023223877D-07 -.113661026644D+00  .819563865662D-07
     .962786407553D+00  .196781250000D+03 -.235414472253D+01 -.792818738368D-08
     .371086885830D-09  .100000000000D+01  .167300000000D+04  .000000000000D+00
     .240000000000D+01  .000000000000D+00 -.107102096081D-07  .920000000000D+02
     .482406000000D+06  .400000000000D+01
18 12  2  3 16  0  0.0  .179870054126D-03  .181898940355D-11  .000000000000D+00
     .111000000000D+03  .543750000000D+01  .522521765129D-08  .198564563692D+01
     .121071934700D-06  .127928905422D-01  .844895839691D-05  .515366800117D+04
     .489600000000D+06 -.206753611565D-06  .195801817884D+01 -.240281224251D-06
     .930281415281D+00  .203031250000D+03 -.219854148345D+01 -.823855745470D-08
    -.413945813933D-09  .100000000000D+01  .167300000000D+04  .000000000000D+00
     .340000000000D+01  .000000000000D+00 -.107102096081D-07  .111000000000D+03
     .482406000000D+06  .400000000000D+01
19 12  2  3 16  0  0.0 -.232199672610D-03 -.386535248253D-11  .000000000000D+00
     .480000000000D+02 -.308750000000D+02  .452554565000D-08 -.284231516641D+00
    -.157952308655D-05  .788564013783D-02  .959821045399D-05  .515374431610D+04
     .489600000000D+06  .134110450745D-06 -.603418773214D-01  .447034835815D-07
     .960204335199D+00  .193125000000D+03  .138568163692D+00 -.798890419850D-08
     .446447167745D-09  .100000000000D+01  .167300000000D+04  .000000000000D+00
     .240000000000D+01  .000000000000D+00 -.144354999065D-07  .480000000000D+02
     .482406000000D+06  .400000000000D+01
20 12  2  3 16  0  0.0  .612358562648D-04  .682121026330D-12  .000000000000D+00
     .740000000000D+02  .104062500000D+02  .522771775543D-08  .238549316249D+01
     .411644577980D-06  .513234187383D-02  .840798020363D-05  .515377351379D+04
     .489600000000D+06  .111758708954D-07  .190420338409D+01 -.108033418655D-06
     .930631971414D+00  .197812500000D+03  .127584010359D+01 -.819034116058D-08
    -.512164190837D-09  .100000000000D+01  .167300000000D+04  .000000000000D+00
     .240000000000D+01  .000000000000D+00 -.791624188423D-08  .740000000000D+02
     .482406000000D+06  .400000000000D+01
21 12  2  3 16  0  0.0 -.201966147870D-03 -.250111042988D-11  .000000000000D+00
     .870000000000D+02  .240625000000D+01  .544451250009D-08  .304553638604D+01
    -.391155481339D-07  .185134744970D-01  .626221299171D-05  .515365191650D+04
     .489600000000D+06 -.260770320892D-07  .905749929263D+00 -.299885869026D-06
     .931379641049D+00  .243781250000D+03 -.229635905902D+01 -.812355266429D-08
     .121433629627D-09  .100000000000D+01  .167300000000D+04  .000000000000D+00
     .240000000000D+01  .000000000000D+00 -.111758708954D-07  .870000000000D+02
     .482406000000D+06  .400000000000D+01
22 12  2  3 16  0  0.0  .142913311720D-03  .000000000000D+00  .000000000000D+00
     .980000000000D+02  .122812500000D+02  .544022660727D-08  .113117576715D+01
     .668689608574D-06  .572022795677D-02  .840798020363D-05  .515369041443D+04
     .489600000000D+06 -.949949026108D-07  .196163899032D+01  .521540641785D-07
     .927995105464D+00  .203062500000D+03 -.199640490785D+01 -.844642325600D-08
    -.436446751188D-09  .100000000000D+01  .167300000000D+04  .000000000000D+00
     .340000000000D+01  .000000000000D+00 -.167638063431D-07  .980000000000D+02
     .482406000000D+06  .400000000000D+01
23 12  2  3 16  0  0.0  .236188992858D-03 -.341060513165D-11  .000000000000D+00
     .740000000000D+02  .107781250000D+03  .429839333105D-08 -.739905521932D+00
     .546127557755D-05  .754838937428D-02  .820495188236D-05  .515368171120D+04
     .489600000000D+06  .171363353729D-06  .300682310737D+01 -.987201929092D-07
     .961810935240D+00  .221343750000D+03 -.302983244468D+01 -.799283293357D-08
    -.632169189527D-10  .100000000000D+01  .167300000000D+04  .000000000000D+00
     .240000000000D+01  .000000000000D+00 -.200234353542D-07  .740000000000D+02
     .482406000000D+06  .400000000000D+01
25 12  2  3 16  0  0.0  .314428471029D-04  .227373675443D-12  .000000000000D+00
     .920000000000D+02 -.910312500000D+02  .421410410578D-08  .259803421188D+01
    -.467151403427D-05  .118061329704D-02  .596232712269D-05  .515376764488D+04
     .489600000000D+06  .745058059692D-08 -.120569197478D+01 -.111758708954D-07
     .967037523143D+00  .267906250000D+03  .648941088510D+00 -.802569144512D-08
    -.285726187357D-10  .100000000000D+01  .167300000000D+04  .000000000000D+00
     .240000000000D+01  .000000000000D+00  .558793544769D-08  .920000000000D+02
     .482406000000D+06  .400000000000D+01
26 12  2  3 16  0  0.0 -.323971733451D-03 -.150066625793D-10  .000000000000D+00
     .210000000000D+02  .951250000000D+02  .394159275459D-08 -.873278963003D+00
     .522471964359D-05  .207145959139D-01  .796280801296D-05  .515365658951D+04
     .489600000000D+06 -.894069671631D-07  .307707463523D+01  .426545739174D-06
     .984916169758D+00  .240250000000D+03  .117066845639D+01 -.800819071614D-08
    -.678599694973D-10  .100000000000D+01  .167300000000D+04  .000000000000D+00
     .240000000000D+01  .000000000000D+00 -.605359673500D-08  .210000000000D+02
     .482406000000D+06  .400000000000D+01
27 12  2  3 16  0  0.0  .352984759957D-03  .386535248253D-11  .000000000000D+00
     .420000000000D+02  .261250000000D+02  .418553148704D-08  .874782733069D-01
     .132247805595D-05  .219474057667D-01  .324659049511D-05  .515354712486D+04
     .489600000000D+06 -.173225998878D-06 -.228236299552D+01 -.346451997757D-06
     .981900526521D+00  .333781250000D+03 -.113116425545D+01 -.843963725905D-08
     .464305054455D-11  .100000000000D+01  .167300000000D+04  .000000000000D+00
     .240000000000D+01  .000000000000D+00 -.419095158577D-08  .420000000000D+02
     .482406000000D+06  .400000000000D+01
29 12  2  3 16  0  0.0  .281266402453D-03  .352429196937D-11  .000000000000D+00
     .890000000000D+02 -.290625000000D+02  .434696678290D-08 -.298800698628D+01
    -.163540244102D-05  .221184408292D-02  .951811671257D-05  .515364208221D+04
     .489600000000D+06  .745058059692D-08 -.105153514329D+00  .391155481339D-07
     .963295718093D+00  .193937500000D+03 -.118850063926D+01 -.780532512312D-08
     .430732227440D-09  .100000000000D+01  .167300000000D+04  .000000000000D+00
     .240000000000D+01  .000000000000D+00 -.931322574615D-08  .890000000000D+02
     .482406000000D+06  .400000000000D+01
30 12  2  3 16  0  0.0 -.321855768561D-04 -.119371179608D-10  .000000000000D+00
     .130000000000D+03 -.977812500000D+02  .454947521819D-08  .348691449839D+00
    -.508502125740D-05  .108849512180D-01  .573694705963D-05  .515361660957D+04
     .489600000000D+06 -.143423676491D-06 -.129557558531D+01 -.763684511185D-07
     .958270610583D+00  .270250000000D+03  .155314086589D+01 -.838784938760D-08
    -.136077096729D-09  .100000000000D+01  .167300000000D+04  .000000000000D+00
     .240000000000D+02  .000000000000D+00 -.419095158577D-08  .130000000000D+03
     .482406000000D+06  .400000000000D+01
31 12  2  3 16  0  0.0  .203665811568D-03  .466116034659D-11  .000000000000D+00
     .118000000000D+03  .220625000000D+02  .418053127877D-08 -.232669968155D+01
     .128895044327D-05  .803843094036D-02  .247918069363D-05  .515358143997D+04
     .489600000000D+06 -.186264514923D-07 -.222680140491D+01  .119209289551D-06
     .980671128203D+00  .344625000000D+03 -.912911616925D+00 -.808105089392D-08
     .303584074067D-10  .100000000000D+01  .167300000000D+04  .000000000000D+00
     .240000000000D+01  .000000000000D+00 -.130385160446D-07  .118000000000D+03
     .482406000000D+06  .400000000000D+01
